$$SOE
2461302.500000000, A.D. 2026-Sep-19 00:00:00.0000, 1.394460512942466E+08, 6.030070306733169E+07, -9.463146371229850E+05,
2461309.500000000, A.D. 2026-Sep-26 00:00:00.0000, 1.326872900044583E+08, 7.867367063998647E+07, -2.158328815623872E+06,
2461316.500000000, A.D. 2026-Oct-03 00:00:00.0000, 1.241759558403217E+08, 9.600989041815737E+07, -3.341978160775345E+06,
2461323.500000000, A.D. 2026-Oct-10 00:00:00.0000, 1.141077539421842E+08, 1.121451072992759E+08, -4.483889230789624E+06,
2461330.500000000, A.D. 2026-Oct-17 00:00:00.0000, 1.026886451138501E+08, 1.269556965093173E+08, -5.572896144355699E+06,
2461337.500000000, A.D. 2026-Oct-24 00:00:00.0000, 9.012605908307058E+07, 1.403559482375633E+08, -6.600044962612182E+06,
2461344.500000000, A.D. 2026-Oct-31 00:00:00.0000, 7.662205383348183E+07, 1.522938224211392E+08, -7.558471227390319E+06,
2461351.500000000, A.D. 2026-Nov-07 00:00:00.0000, 6.236844219437938E+07, 1.627459583784707E+08, -8.443196642239064E+06,
2461358.500000000, A.D. 2026-Nov-14 00:00:00.0000, 4.754368079472850E+07, 1.717125492827443E+08, -9.250884703587607E+06,
2461365.500000000, A.D. 2026-Nov-21 00:00:00.0000, 3.231120251001044E+07, 1.792124954391507E+08, -9.979585490797155E+06,
2461372.500000000, A.D. 2026-Nov-28 00:00:00.0000, 1.681884753712882E+07, 1.852790725161846E+08, -1.062849033924896E+07,
2461379.500000000, A.D. 2026-Dec-05 00:00:00.0000, 1.199078667177342E+06, 1.899562198236107E+08, -1.119770888276669E+07,
2461386.500000000, A.D. 2026-Dec-12 00:00:00.0000, -1.443028569109679E+07, 1.932954665712854E+08, -1.168807399379247E+07,
2461393.500000000, A.D. 2026-Dec-19 00:00:00.0000, -2.996503066329382E+07, 1.953534562290332E+08, -1.210097599871205E+07,
2461400.500000000, A.D. 2026-Dec-26 00:00:00.0000, -4.531334913714080E+07, 1.961900000590229E+08, -1.243822519879610E+07,
2461407.500000000, A.D. 2027-Jan-02 00:00:00.0000, -6.039459711701168E+07, 1.958665809572319E+08, -1.270194016681240E+07,
2461414.500000000, A.D. 2027-Jan-09 00:00:00.0000, -7.513807021015240E+07, 1.944452294297803E+08, -1.289445849449155E+07,
2461421.500000000, A.D. 2027-Jan-16 00:00:00.0000, -8.948184445152970E+07, 1.919877001397369E+08, -1.301826648521105E+07,
2461428.500000000, A.D. 2027-Jan-23 00:00:00.0000, -1.033717055924644E+08, 1.885548867807651E+08, -1.307594450427618E+07,
2461435.500000000, A.D. 2027-Jan-30 00:00:00.0000, -1.167601778390324E+08, 1.842064231617667E+08, -1.307012514430181E+07,
2461442.500000000, A.D. 2027-Feb-06 00:00:00.0000, -1.296056541618708E+08, 1.790004284805270E+08, -1.300346183287603E+07,
2461449.500000000, A.D. 2027-Feb-13 00:00:00.0000, -1.418716256484959E+08, 1.729933641625506E+08, -1.287860575652950E+07,
2461456.500000000, A.D. 2027-Feb-20 00:00:00.0000, -1.535260060200327E+08, 1.662399747253399E+08, -1.269818927971242E+07,
2461463.500000000, A.D. 2027-Feb-27 00:00:00.0000, -1.645405420288706E+08, 1.587932884834778E+08, -1.246481484831972E+07,
2461470.500000000, A.D. 2027-Mar-06 00:00:00.0000, -1.748902983015546E+08, 1.507046636904891E+08, -1.218104833858664E+07,
2461477.500000000, A.D. 2027-Mar-13 00:00:00.0000, -1.845532100160617E+08, 1.420238696938936E+08, -1.184941563012391E+07,
2461484.500000000, A.D. 2027-Mar-20 00:00:00.0000, -1.935096967870992E+08, 1.327991928934266E+08, -1.147240166628299E+07,
2461491.500000000, A.D. 2027-Mar-27 00:00:00.0000, -2.017423304370528E+08, 1.230775599373150E+08, -1.105245151249462E+07,
2461498.500000000, A.D. 2027-Apr-03 00:00:00.0000, -2.092355500925861E+08, 1.129046729460747E+08, -1.059197300915932E+07,
2461505.500000000, A.D. 2027-Apr-10 00:00:00.0000, -2.159754189681409E+08, 1.023251530721515E+08, -1.009334069964408E+07,
2461512.500000000, A.D. 2027-Apr-17 00:00:00.0000, -2.219494179949554E+08, 9.138268978110136E+07, -9.558900793994751E+06,
2461519.500000000, A.D. 2027-Apr-24 00:00:00.0000, -2.271462721182660E+08, 8.012019404791044E+07, -8.990977002014328E+06,
2461526.500000000, A.D. 2027-May-01 00:00:00.0000, -2.315558055403532E+08, 6.857995440838915E+07, -8.391877133279484E+06,
2461533.500000000, A.D. 2027-May-08 00:00:00.0000, -2.351688228072087E+08, 5.680379602777679E+07, -7.763900344494307E+06,
2461540.500000000, A.D. 2027-May-15 00:00:00.0000, -2.379770150289128E+08, 4.483324353403583E+07, -7.109344766130263E+06,
2461547.500000000, A.D. 2027-May-22 00:00:00.0000, -2.399728911560426E+08, 3.270968510860227E+07, -6.430515553512550E+06,
2461554.500000000, A.D. 2027-May-29 00:00:00.0000, -2.411497298467503E+08, 2.047453668249182E+07, -5.729733789978838E+06,
2461561.500000000, A.D. 2027-Jun-05 00:00:00.0000, -2.415015504034119E+08, 8.169409849267102E+06, -5.009346079417287E+06,
2461568.500000000, A.D. 2027-Jun-12 00:00:00.0000, -2.410231046414149E+08, -4.163715516870783E+06, -4.271734636038496E+06,
2461575.500000000, A.D. 2027-Jun-19 00:00:00.0000, -2.397098904303789E+08, -1.648231426020802E+07, -3.519327965872630E+06,
2461582.500000000, A.D. 2027-Jun-26 00:00:00.0000, -2.375581875739143E+08, -2.874313417027039E+07, -2.754612245227918E+06,
2461589.500000000, A.D. 2027-Jul-03 00:00:00.0000, -2.345651173844510E+08, -4.090200881410352E+07, -1.980143470120318E+06,
2461596.500000000, A.D. 2027-Jul-10 00:00:00.0000, -2.307287280119615E+08, -5.291366445747247E+07, -1.198560447448663E+06,
2461603.500000000, A.D. 2027-Jul-17 00:00:00.0000, -2.260481082622713E+08, -6.473152078111582E+07, -4.125987056373730E+05,
2461610.500000000, A.D. 2027-Jul-24 00:00:00.0000, -2.205235332727614E+08, -7.630748539180377E+07, 3.748945862567537E+05,
2461617.500000000, A.D. 2027-Jul-31 00:00:00.0000, -2.141566460002789E+08, -8.759174222637121E+07, 1.160944610802412E+06,
2461624.500000000, A.D. 2027-Aug-07 00:00:00.0000, -2.069506800322821E+08, -9.853253359609582E+07, 1.942431872509725E+06,
2461631.500000000, A.D. 2027-Aug-14 00:00:00.0000, -1.989107323901895E+08, -1.090759378167271E+08, 2.716074316956386E+06,
2461638.500000000, A.D. 2027-Aug-21 00:00:00.0000, -1.900440932599081E+08, -1.191656485778368E+08, 3.478408288396567E+06,
2461645.500000000, A.D. 2027-Aug-28 00:00:00.0000, -1.803606380724818E+08, -1.287427591247160E+08, 4.225768194463529E+06,
2461652.500000000, A.D. 2027-Sep-04 00:00:00.0000, -1.698732933390374E+08, -1.377455550166941E+08, 4.954265370347708E+06,
2461659.500000000, A.D. 2027-Sep-11 00:00:00.0000, -1.585985892328814E+08, -1.461093250414746E+08, 5.659766528948329E+06,
2461666.500000000, A.D. 2027-Sep-18 00:00:00.0000, -1.465573116563834E+08, -1.537662033847032E+08, 6.337872224046052E+06,
2461673.500000000, A.D. 2027-Sep-25 00:00:00.0000, -1.337752674636736E+08, -1.606450602390995E+08, 6.983896039136618E+06,
2461680.500000000, A.D. 2027-Oct-02 00:00:00.0000, -1.202841771611689E+08, -1.666714639312952E+08, 7.592845585610628E+06,
2461687.500000000, A.D. 2027-Oct-09 00:00:00.0000, -1.061227089316984E+08, -1.717677452772311E+08, 8.159406867728136E+06,
2461694.500000000, A.D. 2027-Oct-16 00:00:00.0000, -9.133766557740702E+07, -1.758532043747728E+08, 8.677934183047608E+06,
2461701.500000000, A.D. 2027-Oct-23 00:00:00.0000, -7.598533088428958E+07, -1.788445113594401E+08, 9.142448494852044E+06,
2461708.500000000, A.D. 2027-Oct-30 00:00:00.0000, -6.013297272707321E+07, -1.806563652843814E+08, 9.546648180584617E+06,
2461715.500000000, A.D. 2027-Nov-06 00:00:00.0000, -4.386048680140935E+07, -1.812024896806958E+08, 9.883937329068467E+06,
2461722.500000000, A.D. 2027-Nov-13 00:00:00.0000, -2.726214298768314E+07, -1.803970618800119E+08, 1.014747787753872E+07,
2461729.500000000, A.D. 2027-Nov-20 00:00:00.0000, -1.044835859816682E+07, -1.781566859900004E+08, 1.033027285910162E+07,
2461736.500000000, A.D. 2027-Nov-27 00:00:00.0000, 6.452621689717737E+06, -1.744030197369891E+08, 1.042528981225818E+07,
2461743.500000000, A.D. 2027-Dec-04 00:00:00.0000, 2.329331568666524E+07, -1.690661591481229E+08, 1.042563419658735E+07,
2461750.500000000, A.D. 2027-Dec-11 00:00:00.0000, 3.990611363294213E+07, -1.620888554365110E+08, 1.032478183685395E+07,
2461757.500000000, A.D. 2027-Dec-18 00:00:00.0000, 5.610323735792322E+07, -1.534315711672557E+08, 1.011687690466595E+07,
2461764.500000000, A.D. 2027-Dec-25 00:00:00.0000, 7.167794651448268E+07, -1.430782684886643E+08, 9.797096548357114E+06,
2461771.500000000, A.D. 2028-Jan-01 00:00:00.0000, 8.640742384320405E+07, -1.310426535917269E+08, 9.362073973254383E+06,
$$EOE